STARLINK-36544          
1 67517U 26012AA  26047.50002314 -.02262047  00000+0 -84509-1 0  9992
2 67517  42.9997  74.0370 0001197 254.6530  27.5392 15.30392370  5660
STARLINK-36412          
1 67518U 26012AB  26047.50002314 -.01799675  00000+0 -57535-1 0  9993
2 67518  42.9999  73.8460 0001391 269.1656  91.1227 15.35054234  5614
STARLINK-36415          
1 67519U 26012AC  26047.50002314 -.01804744  00000+0 -56106-1 0  9991
2 67519  42.9990  73.7898 0001473 270.7861 112.6053 15.35927702  5825
STARLINK-36547          
1 67520U 26012AD  26047.50002314 -.01810171  00000+0 -58777-1 0  9990
2 67520  42.9999  73.8845 0001204 268.7412  75.7691 15.34593110  5615
STARLINK-36444          
1 67521U 26012AE  26047.50002314 -.01813756  00000+0 -56209-1 0  9991
2 67521  42.9995  73.9651 0001040 269.9306  42.7048 15.36045342  5612
HULIANWANG DIGUI-146    
1 67522U 26013A   26042.34729179 -.00000041  00000+0  98639-4 0  9994
2 67522  50.0087  93.2680 0003231 354.9738   5.1123 13.78804724  3212
HULIANWANG DIGUI-147    
1 67523U 26013B   26043.28836318 -.00000048  00000+0  92853-4 0  9992
2 67523  50.0062  89.5622 0001508   9.6650 350.4272 13.77597803  3343
HULIANWANG DIGUI-148    
1 67524U 26013C   26043.13851483 -.00000027  00000+0  11329-3 0  9992
2 67524  50.0082  90.1254 0000399 334.8113  25.2761 13.78242664  3320
HULIANWANG DIGUI-149    
1 67525U 26013D   26043.06238327 -.00000033  00000+0  10607-3 0  9996
2 67525  50.0083  90.3862 0001188  75.5776 284.5250 13.78784861  3312
HULIANWANG DIGUI-150    
1 67526U 26013E   26043.27295651 -.00000038  00000+0  10159-3 0  9990
2 67526  50.0069  89.4842 0002155   6.5718 353.5203 13.78631848  3365
HULIANWANG DIGUI-151    
1 67527U 26013F   26043.26750412 -.00000013  00000+0  12371-3 0  9992
2 67527  50.0190  89.4720 0005437  14.0872 346.0173 13.80322384  3343
HULIANWANG DIGUI-152    
1 67528U 26013G   26047.32842868 -.00000005  00000+0  13275-3 0  9996
2 67528  50.0017  73.6052 0002313 120.3730 239.7393 13.79261797  3901
